[{"OBJECT_NAME":"STARLINK-30903","OBJECT_ID":"2023-177E","EPOCH":"2026-03-09T22:00:01.999584","MEAN_MOTION":15.26760945,"ECCENTRICITY":0.00016428,"INCLINATION":43.001,"RA_OF_ASC_NODE":349.1146,"ARG_OF_PERICENTER":270.9576,"MEAN_ANOMALY":124.2836,"EPHEMERIS_TYPE":0,"CLASSIFICATION_TYPE":"U","NORAD_CAT_ID":58355,"ELEMENT_SET_NO":999,"REV_AT_EPOCH":578,"BSTAR":-0.00070103944,"MEAN_MOTION_DOT":-0.00019028,"MEAN_MOTION_DDOT":0},{"OBJECT_NAME":"TIANMU-1 16","OBJECT_ID":"2024-004B","EPOCH":"2026-03-09T23:11:35.492064","MEAN_MOTION":15.25874833,"ECCENTRICITY":0.00051977,"INCLINATION":97.4617,"RA_OF_ASC_NODE":254.5267,"ARG_OF_PERICENTER":355.4475,"MEAN_ANOMALY":4.6715,"EPHEMERIS_TYPE":0,"CLASSIFICATION_TYPE":"U","NORAD_CAT_ID":58701,"ELEMENT_SET_NO":999,"REV_AT_EPOCH":12064,"BSTAR":0.00031061517,"MEAN_MOTION_DOT":7.887e-5,"MEAN_MOTION_DDOT":0}]
